     2.10           N: GPS NAV DATA                         RINEX VERSION / TYPE
NetR9 5.43          SMO                 20200421 010337 UTC PGM / RUN BY / DATE
gfzrnx-2.1.12       FILE PROCESSING     20250424 035328 UTC COMMENT             
     .9313E-08   .1490E-07  -.5960E-07  -.1192E-06          ION ALPHA           
     .8806E+05   .4915E+05  -.1311E+06  -.3277E+06          ION BETA            
     .279396772385D-08  .115463194561D-13   405504     2102 DELTA-UTC: A0,A1,T,W
    18                                                      LEAP SECONDS        
                                                            END OF HEADER
27 20 04 21 02 00  0.0 -.272549223155e-03 -.104591890704e-10  .000000000000e+00
     .690000000000e+02 -.555625000000e+02  .401088135502e-08 -.593838993149e+00
    -.274740159512e-05  .821658654604e-02  .113062560558e-04  .515366470718e+04
     .180000000000e+06  .109896063805e-06  .264576065025e+01  .689178705215e-07
     .978399043802e+00  .170343750000e+03  .541944467100e+00 -.783175479545e-08
    -.158578033983e-09  .100000000000e+01  .210200000000e+04  .000000000000e+00
     .200000000000e+01  .000000000000e+00  .139698386192e-08  .690000000000e+02
     .172878000000e+06  .400000000000e+01                                      
29 20 04 21 00 00  0.0 -.859019346535e-04 -.898126018001e-11  .000000000000e+00
     .940000000000e+02 -.365625000000e+02  .383837416941e-08 -.124368190043e+01
    -.189244747162e-05  .134782947134e-02  .121314078569e-04  .515360208511e+04
     .172800000000e+06 -.149011611938e-07  .271564513928e+01 -.372529029846e-08
     .985919936368e+00  .163343750000e+03  .188033052281e+01 -.762138889001e-08
    -.108575951196e-09  .100000000000e+01  .210200000000e+04  .000000000000e+00
     .200000000000e+01  .000000000000e+00 -.102445483208e-07  .940000000000e+02
     .165618000000e+06  .400000000000e+01                                      
29 20 04 21 02 00  0.0 -.859671272337e-04 -.898126018001e-11  .000000000000e+00
     .950000000000e+02 -.380937500000e+02  .378337187834e-08 -.193731223237e+00
    -.223703682423e-05  .134692969732e-02  .114757567644e-04  .515360035324e+04
     .180000000000e+06  .223517417908e-07  .271559004432e+01  .931322574615e-08
     .985919212224e+00  .171312500000e+03  .188059963976e+01 -.763638951485e-08
    -.796461747257e-10  .100000000000e+01  .210200000000e+04  .000000000000e+00
     .200000000000e+01  .000000000000e+00 -.102445483208e-07  .950000000000e+02
     .172818000000e+06  .400000000000e+01                                      
31 20 04 21 00 00  0.0 -.373399816453e-04 -.250111042988e-11  .000000000000e+00
     .520000000000e+02  .851875000000e+02  .447161483213e-08  .136690632246e+01
     .459887087345e-05  .951502565295e-02  .786036252975e-05  .515356332588e+04
     .172800000000e+06 -.540167093277e-07  .579033415157e+00  .987201929092e-07
     .958125402797e+00  .225718750000e+03  .127135587639e+00 -.812569561070e-08
     .356800576462e-09  .100000000000e+01  .210200000000e+04  .000000000000e+00
     .200000000000e+01  .000000000000e+00 -.135041773319e-07  .520000000000e+02
     .165618000000e+06  .400000000000e+01                                      
31 20 04 21 02 00  0.0 -.373581424356e-04 -.250111042988e-11  .000000000000e+00
     .550000000000e+02  .935625000000e+02  .456733310490e-08  .241726725748e+01
     .477395951748e-05  .951556535438e-02  .787153840065e-05  .515356111526e+04
     .180000000000e+06 -.875443220139e-07  .578974864787e+00  .335276126862e-07
     .958127980459e+00  .228906250000e+03  .127023573465e+00 -.809998025383e-08
     .362872257943e-09  .100000000000e+01  .210200000000e+04  .000000000000e+00
     .200000000000e+01  .000000000000e+00 -.135041773319e-07  .550000000000e+02
     .172818000000e+06  .400000000000e+01                                      
32 20 04 21 00 00  0.0  .264081638306e-03  .818545231596e-11  .000000000000e+00
     .570000000000e+02 -.358125000000e+02  .436232456547e-08 -.920284822060e+00
    -.195205211639e-05  .387343694456e-02  .117365270853e-04  .515370993996e+04
     .172800000000e+06  .137835741043e-06 -.501945009876e+00  .521540641785e-07
     .957103971451e+00  .152906250000e+03 -.246691591754e+01 -.794854537453e-08
    -.413588656199e-09  .100000000000e+01  .210200000000e+04  .000000000000e+00
     .200000000000e+01  .000000000000e+00  .465661287308e-09  .570000000000e+02
     .165618000000e+06  .400000000000e+01                                      
32 20 04 21 02 00  0.0  .264140777290e-03  .818545231596e-11  .000000000000e+00
     .580000000000e+02 -.277187500000e+02  .440804075545e-08  .129898246989e+00
    -.144168734550e-05  .387452519499e-02  .113956630230e-04  .515371191406e+04
     .180000000000e+06  .484287738800e-07 -.502002547907e+00  .726431608200e-07
     .957100729624e+00  .156656250000e+03 -.246694131965e+01 -.800461913880e-08
    -.419303179946e-09  .100000000000e+01  .210200000000e+04  .000000000000e+00
     .200000000000e+01  .000000000000e+00  .465661287308e-09  .580000000000e+02
     .172818000000e+06  .400000000000e+01                                      
